[ {
    "fname": "Sabrina",
    "lname": "Stallone",
    "address": {
      "streetAddress": "8741 Placerat Ave",
      "city": "Dayton",
      "state": "LA",
      "zip": "13641"
    }
  },
  {
    "fname": "Isabel",
    "lname": "Camiling",
    "address": {
      "streetAddress": "8850 Sollicitudin Rd",
      "city": "Grand Ledge",
      "state": "ND",
      "zip": "39874"
    }
  },
  {
    "fname": "Marie",
    "lname": "Rich",
    "address": {
      "streetAddress": "8651 Augue Ln",
      "city": "Pharr",
      "state": "ND",
      "zip": "18079"
    }
  },
  {
    "fname": "Talatha",
    "lname": "Sherwood",
    "address": {
      "streetAddress": "634 Rutrum Ln",
      "city": "Alhambra",
      "state": "OR",
      "zip": "31529"
    }
  },
  {
    "fname": "Weibin",
    "lname": "Wyatt",
    "address": {
      "streetAddress": "9611 Aliquam Ave",
      "city": "Williamstown",
      "state": "LA",
      "zip": "36478"
    }
  },
  {
    "fname": "Jack",
    "lname": "Kaa",
    "address": {
      "streetAddress": "7829 Sollicitudin St",
      "city": "Freehold",
      "state": "AK",
      "zip": "56389"
    }
  },
  {
    "fname": "Isabel",
    "lname": "Snyder",
    "address": {
      "streetAddress": "7863 Vitae St",
      "city": "San Gabriel Valley",
      "state": "SD",
      "zip": "72056"
    }
  },
  {
    "fname": "Gary",
    "lname": "Dentice",
    "address": {
      "streetAddress": "4480 Libero Ct",
      "city": "Frankfort",
      "state": "IN",
      "zip": "70479"
    }
  },
  {
    "fname": "Harpal",
    "lname": "Laiuppa",
    "address": {
      "streetAddress": "6770 Sed Dr",
      "city": "Gettysburg",
      "state": "IA",
      "zip": "21478"
    }
  },
  {
    "fname": "Loknath",
    "lname": "Maynard",
    "address": {
      "streetAddress": "8889 Lorem Rd",
      "city": "Bremen",
      "state": "TX",
      "zip": "60949"
    }
  }
]